NORAD_CAT_ID,OBJECT_NAME,OBJECT_TYPE,EPOCH,MEAN_MOTION,ECCENTRICITY,INCLINATION,RA_OF_ASC_NODE,ARG_OF_PERICENTER,MEAN_ANOMALY,BSTAR,MEAN_MOTION_DOT,MEAN_MOTION_DDOT,TLE_LINE0,TLE_LINE1,TLE_LINE2,SEMIMAJOR_AXIS,PERIOD,APOGEE,PERIGEE,DECAYED
53636.0,STARLINK-4586,PAYLOAD,2023-04-30 14:04:49,15.08835397,0.0001027,53.2154,231.1105,61.3571,298.7525,0.00011714,1.577e-05,0.0,0 STARLINK-4586,1 53636U 22104BA  23120.58667958  .00001577  00000-0  11714-3 0  9991,2 53636  53.2154 231.1105 0001027  61.3571 298.7525 15.08835397 37581,6917.894,95.438,540.47,539.049,0.0
53636.0,STARLINK-4586,PAYLOAD,2023-05-01 12:20:12,15.0884431,9.7e-05,53.2157,226.9473,68.8483,291.2613,0.00023907,3.52e-05,0.0,0 STARLINK-4586,1 53636U 22104BA  23121.51403846  .00003520  00000-0  23907-3 0  9996,2 53636  53.2157 226.9473 0000970  68.8483 291.2613 15.08844310 38744,6917.867,95.437,540.403,539.061,0.0
53636.0,STARLINK-4586,PAYLOAD,2023-05-01 18:41:45,15.08855095,8.96e-05,53.2162,225.7566,78.0731,282.0362,0.00040678,6.195e-05,0.0,0 STARLINK-4586,1 53636U 22104BA  23121.77899343  .00006195  00000-0  40678-3 0  9990,2 53636  53.2162 225.7566 0000896  78.0731 282.0362 15.08855095 37768,6917.834,95.437,540.319,539.079,0.0
53636.0,STARLINK-4586,PAYLOAD,2023-05-02 13:46:22,15.08858368,9.39e-05,53.2157,222.1885,78.2945,281.8153,0.00052342,8.056e-05,0.0,0 STARLINK-4586,1 53636U 22104BA  23122.57387212  .00008056  00000-0  52342-3 0  9995,2 53636  53.2157 222.1885 0000939  78.2945 281.8153 15.08858368 37888,6917.824,95.436,540.339,539.04,0.0
53636.0,STARLINK-4586,PAYLOAD,2023-05-02 16:57:08,15.08860666,0.0001099,53.2177,221.5956,89.4916,270.6202,0.00060307,9.328e-05,0.0,0 STARLINK-4586,1 53636U 22104BA  23122.70635060  .00009328  00000-0  60307-3 0  9990,2 53636  53.2177 221.5956 0001099  89.4916 270.6202 15.08860666 38923,6917.817,95.436,540.442,538.922,0.0
53636.0,STARLINK-4586,PAYLOAD,2023-05-02 23:18:41,15.08833502,0.0001664,53.2167,220.4013,74.2771,285.8404,-0.00010513,-1.961e-05,0.0,0 STARLINK-4586,1 53636U 22104BA  23122.97131705 -.00001961  00000-0 -10513-3 0  9997,2 53636  53.2167 220.4013 0001664  74.2771 285.8404 15.08833502 37945,6917.9,95.438,540.916,538.614,0.0
53636.0,STARLINK-4586,PAYLOAD,2023-05-03 13:37:10,15.08833627,9.68e-05,53.2165,217.7283,90.8442,269.2661,3.9142e-05,3.35e-06,0.0,0 STARLINK-4586,1 53636U 22104BA  23123.56747873  .00000335  00000-0  39142-4 0  9994,2 53636  53.2165 217.7283 0000968  90.8442 269.2661 15.08833627 39059,6917.9,95.438,540.435,539.095,0.0
53636.0,STARLINK-4586,PAYLOAD,2023-05-03 16:47:56,15.08837333,9.61e-05,53.2164,217.1334,88.4348,271.6754,0.00019122,2.757e-05,0.0,0 STARLINK-4586,1 53636U 22104BA  23123.69995876  .00002757  00000-0  19122-3 0  9991,2 53636  53.2164 217.1334 0000961  88.4348 271.6754 15.08837333 39070,6917.889,95.438,540.418,539.089,0.0
53636.0,STARLINK-4586,PAYLOAD,2023-05-04 05:31:01,15.08840929,9.82e-05,53.2172,214.7557,93.5279,266.5826,0.00034748,5.247e-05,0.0,0 STARLINK-4586,1 53636U 22104BA  23124.22988058  .00005247  00000-0  34748-3 0  9993,2 53636  53.2172 214.7557 0000982  93.5279 266.5826 15.08840929 38136,6917.878,95.437,540.422,539.063,0.0
53636.0,STARLINK-4586,PAYLOAD,2023-05-04 13:27:57,15.08850246,9.67e-05,53.2169,213.2689,92.6369,267.4734,0.00065783,0.000102,0.0,0 STARLINK-4586,1 53636U 22104BA  23124.56107927  .00010200  00000-0  65783-3 0  9996,2 53636  53.2169 213.2689 0000967  92.6369 267.4734 15.08850246 39205,6917.849,95.437,540.383,539.045,0.0
53636.0,STARLINK-4586,PAYLOAD,2023-05-04 15:03:20,15.0885293,9.53e-05,53.216,212.9708,88.0351,272.075,0.00074154,0.00011538,0.0,0 STARLINK-4586,1 53636U 22104BA  23124.62731865  .00011538  00000-0  74154-3 0  9994,2 53636  53.2160 212.9708 0000953  88.0351 272.0750 15.08852930 39212,6917.841,95.437,540.365,539.047,0.0
53636.0,STARLINK-4586,PAYLOAD,2023-05-05 13:18:44,15.08850876,9.17e-05,53.2151,208.8071,83.4509,276.6588,0.00032291,4.857e-05,0.0,0 STARLINK-4586,1 53636U 22104BA  23125.55467621  .00004857  00000-0  32291-3 0  9995,2 53636  53.2151 208.8071 0000917  83.4509 276.6588 15.08850876 38331,6917.847,95.437,540.347,539.078,0.0
53636.0,STARLINK-4586,PAYLOAD,2023-05-05 22:51:02,15.08845487,9.13e-05,53.2146,207.0241,81.1824,278.9272,0.00016799,2.387e-05,0.0,0 STARLINK-4586,1 53636U 22104BA  23125.95211698  .00002387  00000-0  16799-3 0  9991,2 53636  53.2146 207.0241 0000913  81.1824 278.9272 15.08845487 38399,6917.864,95.437,540.36,539.097,0.0
53636.0,STARLINK-4586,PAYLOAD,2023-05-06 11:34:08,15.08842332,6.2e-05,53.2142,204.6455,65.4959,294.6098,3.3496e-05,2.46e-06,0.0,0 STARLINK-4586,1 53636U 22104BA  23126.48203832  .00000246  00000-0  33496-4 0  9997,2 53636  53.2142 204.6455 0000620  65.4959 294.6098 15.08842332 39493,6917.873,95.437,540.167,539.309,0.0
53636.0,STARLINK-4586,PAYLOAD,2023-05-07 11:24:54,15.08850633,9.54e-05,53.2147,200.1835,102.4541,257.6558,0.00022201,3.248e-05,0.0,0 STARLINK-4586,1 53636U 22104BA  23127.47563435  .00003248  00000-0  22201-3 0  9991,2 53636  53.2147 200.1835 0000954 102.4541 257.6558 15.08850633 38627,6917.848,95.437,540.373,539.053,0.0
53636.0,STARLINK-4586,PAYLOAD,2023-05-08 03:18:47,15.08828747,0.0001003,53.2141,197.2104,90.4084,269.7023,2.6251e-05,1.3e-06,0.0,0 STARLINK-4586,1 53636U 22104BA  23128.13804978  .00000130  00000-0  26251-4 0  9992,2 53636  53.2141 197.2104 0001003  90.4084 269.7023 15.08828747 38723,6917.915,95.438,540.474,539.086,0.0
53636.0,STARLINK-4586,PAYLOAD,2023-05-08 11:15:43,15.08820394,0.0001041,53.2142,195.7237,86.2224,273.8887,-0.00011108,-2.054e-05,0.0,0 STARLINK-4586,1 53636U 22104BA  23128.46925582 -.00002054  00000-0 -11108-3 0  9996,2 53636  53.2142 195.7237 0001041  86.2224 273.8887 15.08820394 39797,6917.94,95.439,540.525,539.085,0.0
53636.0,STARLINK-4586,PAYLOAD,2023-05-09 11:06:31,15.08840139,0.0001143,53.2145,191.2635,79.2347,280.8774,0.00062258,9.634e-05,0.0,0 STARLINK-4586,1 53636U 22104BA  23129.46286200  .00009634  00000-0  62258-3 0  9995,2 53636  53.2145 191.2635 0001143  79.2347 280.8774 15.08840139 39943,6917.88,95.438,540.536,538.954,0.0
53636.0,STARLINK-4586,PAYLOAD,2023-05-10 09:21:54,15.0887249,0.0001178,53.2145,187.1005,80.9149,279.1976,0.0009428,0.00014762,0.0,0 STARLINK-4586,1 53636U 22104BA  23130.39021318  .00014762  00000-0  94280-3 0  9994,2 53636  53.2145 187.1005 0001178  80.9149 279.1976 15.08872490 40082,6917.781,95.435,540.461,538.831,0.0
53636.0,STARLINK-4586,PAYLOAD,2023-05-10 20:29:35,15.08866542,0.0001129,53.214,185.0176,78.6589,281.4529,0.00046082,7.059e-05,0.0,0 STARLINK-4586,1 53636U 22104BA  23130.85388737  .00007059  00000-0  46082-3 0  9994,2 53636  53.2140 185.0176 0001129  78.6589 281.4529 15.08866542 39136,6917.799,95.436,540.445,538.883,0.0
53636.0,STARLINK-4586,PAYLOAD,2023-05-11 10:48:04,15.08847717,0.0001297,53.2146,182.3444,90.6397,269.4743,-0.00012053,-2.206e-05,0.0,0 STARLINK-4586,1 53636U 22104BA  23131.45004734 -.00002206  00000-0 -12053-3 0  9995,2 53636  53.2146 182.3444 0001297  90.6397 269.4743 15.08847717 39224,6917.857,95.437,540.619,538.825,0.0
53636.0,STARLINK-4586,PAYLOAD,2023-05-11 20:20:22,15.08846844,0.0001326,53.2145,180.5605,84.0365,276.0778,-2.6709e-05,-7.13e-06,0.0,0 STARLINK-4586,1 53636U 22104BA  23131.84748803 -.00000713  00000-0 -26709-4 0  9995,2 53636  53.2145 180.5605 0001326  84.0365 276.0778 15.08846844 40300,6917.859,95.437,540.642,538.807,0.0
53636.0,STARLINK-4586,PAYLOAD,2023-05-11 23:31:09,15.0884673,0.000144,53.2152,179.9685,86.447,273.6687,-8.8418e-05,-1.695e-05,0.0,0 STARLINK-4586,1 53636U 22104BA  23131.97996960 -.00001695  00000-0 -88418-4 0  9993,2 53636  53.2152 179.9685 0001440  86.4470 273.6687 15.08846730 40326,6917.86,95.437,540.721,538.729,0.0
53636.0,STARLINK-4586,PAYLOAD,2023-05-12 09:03:28,15.08838575,0.0001387,53.2145,178.1798,84.5018,275.6132,-0.00018131,-3.172e-05,0.0,0 STARLINK-4586,1 53636U 22104BA  23132.37741295 -.00003172  00000-0 -18131-3 0  9993,2 53636  53.2145 178.1798 0001387  84.5018 275.6132 15.08838575 39368,6917.885,95.438,540.709,538.79,0.0
53636.0,STARLINK-4586,PAYLOAD,2023-05-13 08:54:15,15.08848476,0.0001481,53.2155,173.7235,78.989,281.1269,0.00021092,3.071e-05,0.0,0 STARLINK-4586,1 53636U 22104BA  23133.37100825  .00003071  00000-0  21092-3 0  9998,2 53636  53.2155 173.7235 0001481  78.9890 281.1269 15.08848476 39517,6917.854,95.437,540.744,538.695,0.0
53636.0,STARLINK-4586,PAYLOAD,2023-05-13 20:01:57,15.0884469,0.0001451,53.2149,171.6382,75.2694,284.8459,0.00012128,1.643e-05,0.0,0 STARLINK-4586,1 53636U 22104BA  23133.83468887  .00001643  00000-0  12128-3 0  9997,2 53636  53.2149 171.6382 0001451  75.2694 284.8459 15.08844690 40606,6917.866,95.437,540.735,538.727,0.0
53636.0,STARLINK-4586,PAYLOAD,2023-05-14 08:45:02,15.08835627,0.0001255,53.2147,169.2561,99.5698,260.5435,8.2983e-05,1.033e-05,0.0,0 STARLINK-4586,1 53636U 22104BA  23134.36461325  .00001033  00000-0  82983-4 0  9996,2 53636  53.2147 169.2561 0001255  99.5698 260.5435 15.08835627 39660,6917.894,95.438,540.627,538.891,0.0
53636.0,STARLINK-4586,PAYLOAD,2023-05-14 19:52:44,15.08836549,0.000147,53.216,167.1738,107.1637,252.9516,4.4429e-05,4.19e-06,0.0,0 STARLINK-4586,1 53636U 22104BA  23134.82829339  .00000419  00000-0  44429-4 0  9990,2 53636  53.2160 167.1738 0001470 107.1637 252.9516 15.08836549 40757,6917.891,95.438,540.773,538.739,0.0
53636.0,STARLINK-4586,PAYLOAD,2023-05-15 11:46:35,15.08854186,0.000132,53.2154,164.2014,90.2747,269.8396,-0.00011152,-2.063e-05,0.0,0 STARLINK-4586,1 53636U 22104BA  23135.49068623 -.00002063  00000-0 -11152-3 0  9990,2 53636  53.2154 164.2014 0001320  90.2747 269.8396 15.08854186 39830,6917.837,95.437,540.615,538.789,0.0
53636.0,STARLINK-4586,PAYLOAD,2023-05-16 08:26:36,15.08836088,0.000122,53.2152,160.3352,90.0502,270.063,5.7207e-05,6.23e-06,0.0,0 STARLINK-4586,1 53636U 22104BA  23136.35181397  .00000623  00000-0  57207-4 0  9990,2 53636  53.2152 160.3352 0001220  90.0502 270.0630 15.08836088 39966,6917.892,95.438,540.601,538.913,0.0
